ORBCOMM FM05            
1 25117U 97084F   26016.51284043  .00000980  00000+0  30751-3 0  9991
2 25117  45.0152  63.1357 0004154 238.8179 121.2266 14.46850499471497
ORBCOMM FM06            
1 25118U 97084G   26016.86050730  .00000978  00000+0  30593-3 0  9995
2 25118  45.0146  60.9412 0003172 247.4685 282.3392 14.47017754472462
ORBCOMM FM07            
1 25119U 97084H   26016.83995875  .00001073  00000+0  33157-3 0  9997
2 25119  45.0140  61.7845 0004838 234.0099 126.0305 14.47033529472452
ORBCOMM FM03            
1 25158U 98007B   26016.53993757  .00000837  00000+0  33506-3 0  9995
2 25158 107.9658 214.0541 0046366 236.8598 122.8088 14.35140797454645
ORBCOMM FM04            
1 25159U 98007C   26016.97559478  .00000845  00000+0  33693-3 0  9998
2 25159 107.9648 218.3171 0042050 233.6628 126.0627 14.35382555454898
ORBCOMM FM17            
1 25413U 98046A   26016.87109245  .00000617  00000+0  26070-3 0  9994
2 25413  44.9958 328.7437 0002720 246.5725 113.4836 14.35619793433871
ORBCOMM FM18            
1 25414U 98046B   26016.92108919  .00000738  00000+0  28122-3 0  9992
2 25414  44.9915 240.0593 0004117 287.6234  72.4165 14.39265724435031
ORBCOMM FM19            
1 25415U 98046C   26016.89821763  .00000773  00000+0  29329-3 0  9997
2 25415  44.9927 242.4924 0002872 284.5672  89.7284 14.39089382434987
